ID,Address,Suburb,Price,Type,Date,Rooms,Bathroom,Car,Landsize,Age,Lattitude,Longtitude,train_station_id,distance_to_train_stat,travel_min_to_CBD,over_priced?,crime_A_average,crime_B_average,crime_C_average
ID695331891,6 Audrey Cr,GLEN IRIS,3000000.0,h,9/09/2017,5,3.0,2.0,775.0,84.0,-37.85855,145.07775,19848,494.45162517460363,30.666666666666668,0,2047.6666666666667,9171.0,742.3333333333334
ID173224617,66 McNamara St,PRESTON,1148000.0,h,12/08/2017,4,1.0,2.0,552.0,79.0,-37.72879,144.98538,20011,1531.8949529666475,31.2,0,705.3333333333334,5479.666666666667,335.0
ID427524591,279 Mansfield St,THORNBURY,900000.0,h,22/08/2016,2,1.0,1.0,497.0,59.0,-37.7585,145.0226,20014,2149.2811709819844,25.3,0,2403.6666666666665,5212.333333333333,586.6666666666666
ID901971046,2/11 French St,THOMASTOWN,542000.0,u,1/07/2017,3,2.0,2.0,213.0,49.0,-37.67748,145.01791,20007,451.1804263373579,40.22222222222222,0,502.6666666666667,1662.6666666666667,118.66666666666667
ID892578775,1/30 Boyd St,DANDENONG NORTH,617000.0,u,29/07/2017,4,3.0,2.0,279.0,11.0,-37.96769000000001,145.21732,19889,2544.95436521268,46.0,0,1083.6666666666667,3612.6666666666665,368.3333333333333
ID628605913,4/3 MacKenzie St,CHELTENHAM,425000.0,u,1/07/2017,2,1.0,1.0,0.0,6.0,-37.97143,145.05219,19866,571.2437708778921,42.125,0,1288.3333333333333,4242.333333333333,480.0
ID890318510,503/99 Nott St,PORT MELBOURNE,456000.0,u,19/11/2016,1,1.0,1.0,0.0,12.0,-37.8405,144.9385,22180,2756.330299957454,0.0,0,659.0,5219.333333333333,338.3333333333333
ID791844681,6 Irene Pl,PRAHRAN,1530000.0,h,18/03/2017,3,1.0,0.0,231.0,49.0,-37.8498,145.0039,19947,600.1011994761135,16.214285714285715,0,705.3333333333334,5479.666666666667,335.0
ID722953754,3/28 Avoca Av,ELWOOD,930000.0,u,29/07/2017,2,1.0,1.0,837.0,89.0,-37.87307,144.98635,19956,745.0519148574322,17.5,1,1666.0,9333.666666666666,523.0
ID912488629,3 Seaton Rd,HIGHETT,1430000.0,h,24/06/2017,4,2.0,1.0,590.0,19.0,-37.94549,145.03332,19872,818.7129907409038,40.166666666666664,0,2837.0,9343.666666666666,1212.6666666666667
ID242008650,89A New St,SOUTH KINGSVILLE,730000.0,t,29/07/2017,3,2.0,2.0,340.0,19.0,-37.83172,144.86683,19995,1683.893629914555,14.333333333333334,0,987.3333333333334,2150.3333333333335,212.0
ID706170762,2/872 Drummond St,CARLTON NORTH,765000.0,t,8/10/2016,2,1.0,1.0,1031.0,49.0,-37.784,144.9715,19969,1507.1569463559413,24.333333333333332,0,3703.6666666666665,18944.0,2039.3333333333333
ID216617309,3 Lyall Dr,WERRIBEE,490000.0,h,3/06/2017,3,2.0,4.0,1022.0,14.0,-37.90811,144.64373,19921,1810.3418823194183,35.142857142857146,0,98.66666666666667,190.66666666666666,19.0
ID999518055,9 Arthur St,DONCASTER,1355000.0,h,29/04/2017,3,1.0,1.0,814.0,54.0,-37.7909,145.1309,20042,3260.8744853206445,25.775,0,1666.0,9333.666666666666,523.0
ID661690454,91 Princess St,KEW,2800000.0,h,23/04/2016,4,1.0,0.0,919.0,27.0,-37.8012,145.0297,19904,2332.5861338984596,15.666666666666666,0,271.6666666666667,771.6666666666666,74.0
ID875333620,86 Cramer St,PRESTON,1150000.0,h,27/11/2016,3,1.0,4.0,728.0,99.0,-37.7392,144.9937,20012,603.3871402218487,28.3,0,659.0,5219.333333333333,338.3333333333333
ID142484632,14 Jenkins St,NORTHCOTE,1400000.0,h,28/08/2016,3,1.0,2.0,582.0,87.0,-37.7651,145.0062,20015,812.3027727296469,23.3,0,136.33333333333334,302.6666666666667,42.0
ID567174363,15 Genoa St,MOORABBIN,937000.0,h,10/09/2016,3,2.0,1.0,534.0,59.0,-37.9426,145.0568,19872,1462.1074669904472,40.166666666666664,0,71.0,261.0,20.0
ID827963429,4/20 William St,ESSENDON,435000.0,u,19/11/2016,2,1.0,1.0,0.0,49.0,-37.7461,144.9079,20036,1154.31165822215,27.0,0,334.6666666666667,1407.6666666666667,88.33333333333333
ID654376445,30 Moorhouse St,CAMBERWELL,2990000.0,h,20/05/2017,4,2.0,2.0,742.0,22.0,-37.8284,145.0673,19892,289.7140801934152,21.785714285714285,0,3767.6666666666665,18925.0,2042.3333333333333
ID371596448,25 Moodemere St,NOBLE PARK,802000.0,h,27/05/2017,3,1.0,1.0,818.0,39.0,-37.97712,145.17516,19890,1111.6860906751103,44.34615384615385,0,84.66666666666667,371.6666666666667,13.0
ID848330253,176 Were St,BRIGHTON,1562500.0,h,10/09/2016,5,2.0,2.0,655.0,94.0,-37.9264,145.0044,19949,1314.1136272033486,31.5,0,2744.3333333333335,10289.666666666666,780.0
ID895506971,13 Patterson St,PRESTON,790000.0,h,26/07/2016,2,1.0,1.0,266.0,94.0,-37.7423,145.0105,20012,966.6438139869166,28.3,0,659.0,5219.333333333333,338.3333333333333
ID724519305,14 Beths St,BENTLEIGH,2700000.0,h,17/06/2017,4,4.0,2.0,673.0,84.0,-37.91888,145.04775,19939,958.2541008656394,35.15384615384615,0,959.0,4476.666666666667,324.0
ID244815435,2 Fairbank Pl,MELTON WEST,355000.0,h,3/06/2017,5,2.0,2.0,666.0,43.0,-37.67523,144.55833,19980,3364.866623404251,39.6,0,50.333333333333336,68.0,12.0
ID597143584,70 Wetherby Rd,DONCASTER,1410000.0,h,19/08/2017,3,1.0,2.0,723.0,24.0,-37.79309,145.14287,19898,3068.4280207786455,30.307692307692307,0,1666.0,9333.666666666666,523.0
ID848143345,1/52 Leila Rd,CARNEGIE,1275000.0,u,3/06/2017,3,2.0,2.0,750.0,35.0,-37.90092,145.04924,19941,883.2049257044938,32.15384615384615,0,3767.6666666666665,18925.0,2042.3333333333333
ID788941919,1/68 Bridge St,NORTHCOTE,312000.0,u,14/05/2016,1,1.0,1.0,0.0,59.0,-37.7783,144.9954,20017,219.46296866263907,19.3,0,136.33333333333334,302.6666666666667,42.0
ID746274748,86 Dendy St,BRIGHTON,3105000.0,h,28/08/2016,5,2.0,2.0,1045.0,89.0,-37.9205,145.0012,19951,736.1910225057064,26.5,1,2744.3333333333335,10289.666666666666,780.0
ID958096154,15 Prior Rd,MALVERN EAST,1335000.0,h,27/11/2016,3,2.0,2.0,606.0,54.0,-37.8831,145.0879,19839,998.1626017910631,26.5,0,610.0,1743.6666666666667,228.0
ID287671169,24 Sylvia St,BLACKBURN SOUTH,1291000.0,h,8/07/2017,3,2.0,2.0,548.0,49.0,-37.84453,145.14446,19897,2664.3129274886733,30.818181818181817,0,990.0,3070.0,411.0
ID927596527,13 McKay St,RICHMOND,1150000.0,h,8/10/2016,3,1.0,0.0,176.0,119.0,-37.8116,145.0042,19977,1037.5879266761901,10.235294117647058,0,824.6666666666666,1890.3333333333333,159.33333333333334
ID559394283,380 Ross St,PORT MELBOURNE,1388000.0,t,17/06/2017,3,2.0,2.0,104.0,4.0,-37.83165,144.94411000000005,22180,1656.053481553522,0.0,0,705.3333333333334,5479.666666666667,335.0
ID609087223,8/3 Miller St,FITZROY NORTH,750000.0,t,18/03/2017,2,2.0,2.0,0.0,17.0,-37.7761,144.9792,20017,1227.2740026518272,19.3,0,2047.6666666666667,9171.0,742.3333333333334
ID487272415,4/73 Flinders St,THORNBURY,470000.0,u,3/12/2016,2,1.0,1.0,0.0,49.0,-37.7561,145.0067,20014,724.846118069396,25.3,0,2403.6666666666665,5212.333333333333,586.6666666666666
ID725780040,3 Curtin Ct,ALTONA,931000.0,h,28/08/2016,4,2.0,3.0,532.0,49.0,-37.8637,144.8365,19927,605.0488701877134,24.428571428571427,0,2489.6666666666665,11817.333333333334,1268.6666666666667
ID283886613,8/15 Herbert St,ST KILDA,640000.0,u,3/12/2016,2,1.0,1.0,1055.0,49.0,-37.8715,144.9827,19956,976.1484177005112,17.5,1,1363.6666666666667,6287.666666666667,564.3333333333334
ID464856643,40 Tarneit Rd,WERRIBEE,597000.0,h,29/07/2017,3,1.0,1.0,672.0,6.0,-37.89402000000001,144.66276000000005,19921,613.6346124202104,35.142857142857146,1,98.66666666666667,190.66666666666666,19.0
ID300637971,4/1 Howe St,MURRUMBEENA,745500.0,t,30/07/2016,2,1.0,1.0,186.0,39.0,-37.8947,145.0722,19918,477.87022920795835,27.35483870967742,0,268.3333333333333,736.0,128.33333333333334
ID272170684,5 Charlton St,MOUNT WAVERLEY,1800000.0,h,15/07/2017,3,2.0,2.0,747.0,34.0,-37.88256,145.12518,19875,851.4947105049478,27.35483870967742,0,1471.0,7759.666666666667,779.6666666666666
ID717712948,19 Gordon Gr,MALVERN,2000000.0,h,13/05/2017,3,1.0,2.0,360.0,9.0,-37.8636,145.0301,19944,303.73340188764774,20.8,0,717.3333333333334,1763.0,318.6666666666667
ID767590622,8 Cabernet Cr,BUNDOORA,940000.0,h,26/08/2017,5,3.0,2.0,593.0,94.0,-37.68878,145.05795,19984,3357.978396188501,37.666666666666664,0,684.0,1695.6666666666667,161.0
ID883204180,53 Mangalore St,TRAVANCORE,1740000.0,h,22/05/2016,4,3.0,2.0,650.0,94.0,-37.7796,144.935,20040,1010.260607172651,18.0,0,922.6666666666666,5201.0,296.6666666666667
ID727941336,9 Dorset St,GLEN WAVERLEY,1170000.0,t,9/09/2017,4,3.0,2.0,725.0,83.0,-37.89868,145.14635,19874,2517.217479825897,18.0,0,56.333333333333336,98.33333333333333,19.0
ID603423353,75 Canterbury Rd,BLACKBURN,1112000.0,h,17/06/2017,3,1.0,3.0,632.0,49.0,-37.83107,145.14343,19897,1170.2597843733972,30.818181818181817,0,2524.3333333333335,12864.666666666666,738.6666666666666
ID189162810,49 Northumberland Rd,SUNSHINE NORTH,710000.0,h,22/08/2016,3,1.0,1.0,610.0,79.0,-37.7719,144.8414,20004,1602.5873623533873,26.375,0,1363.6666666666667,6287.666666666667,564.3333333333334
ID824685538,1a Werona St,BENTLEIGH,670000.0,t,26/07/2016,2,2.0,1.0,123.0,12.0,-37.9307,145.0379,19937,419.26932130249855,38.266666666666666,0,925.6666666666666,4701.333333333333,308.6666666666667
ID258417681,33/305 Canterbury Rd,FOREST HILL,680000.0,h,27/05/2017,2,1.0,1.0,189.0,18.0,-37.83283,145.17533,19899,1361.6004357943405,31.666666666666668,0,2006.6666666666667,7754.333333333333,1051.3333333333333
ID684203380,12 Tanglewood St,KINGS PARK,530000.0,h,1/07/2017,3,1.0,1.0,532.0,44.0,-37.731,144.77387,20001,1759.6576405930775,34.375,0,1360.6666666666667,6408.666666666667,691.6666666666666
ID706196429,2/28 Walsh St,SOUTH YARRA,1715000.0,t,28/08/2016,3,2.0,2.0,0.0,49.0,-37.8374,144.9852,19959,638.6635625803106,12.543859649122806,0,1100.6666666666667,3636.3333333333335,457.3333333333333
ID928110411,4/40 Durham Rd,SURREY HILLS,780000.0,u,17/06/2017,3,1.0,1.0,149.0,59.0,-37.82971,145.09007,19894,615.1212922885608,25.76923076923077,0,2532.3333333333335,5455.0,713.0
ID340876681,12 John St,BENTLEIGH EAST,1306000.0,h,30/07/2016,4,2.0,1.0,651.0,14.0,-37.919,145.0558,19939,1660.6692351212605,35.15384615384615,0,925.6666666666666,4701.333333333333,308.6666666666667
ID224979768,10 Barilla Rd,MOORABBIN,935000.0,t,15/07/2017,3,2.0,2.0,280.0,34.0,-37.94111,145.0431,19872,821.3920082954115,40.166666666666664,0,84.33333333333333,293.3333333333333,23.0
